0 ONEWEB-0054
1 45158U 20008AD  24161.08747153 -.00000623  00000-0 -18216-2 0  9995
2 45158  87.8936 183.0184 0002013  89.9576 270.1782 13.10370594212129
0 ONEWEB-0053
1 45157U 20008AC  24161.51079412  .00000633  00000-0  17783-2 0  9995
2 45157  87.8941 182.9529 0001962  94.1795 265.9557 13.10372817212063
0 ONEWEB-0052
1 45156U 20008AB  24161.14726998  .00000042  00000-0  82802-4 0  9991
2 45156  87.8934 182.9726 0001581 101.7746 258.3559 13.10371634212043
0 ONEWEB-0051
1 45155U 20008AA  24161.44848364 -.00000089  00000-0 -28786-3 0  9998
2 45155  87.8961 167.8753 0002068  84.2125 275.9239 13.11418062215176
0 ONEWEB-0049
1 45154U 20008Z   24161.45599459 -.00000099  00000-0 -31977-3 0  9993
2 45154  87.8942 182.9395 0001483  98.1374 261.9922 13.10368736212198
0 ONEWEB-0048
1 45153U 20008Y   24161.53069827 -.00000036  00000-0 -13892-3 0  9999
2 45153  87.8937 182.9455 0001993  93.9245 266.2110 13.10369312211977
0 ONEWEB-0047
1 45152U 20008X   24161.15388418 -.00000275  00000-0 -82390-3 0  9990
2 45152  87.8938 183.0045 0002043  93.8850 266.2511 13.10369897212336
0 ONEWEB-0045
1 45151U 20008W   24161.45017931 -.00000014  00000-0 -75238-4 0  9996
2 45151  87.8962 167.8335 0002187  89.9280 270.2098 13.11417918214499
